*******************************************************************************
Ephemeris / WWW_USER Mon Jul 15 19:20:25 2024 Pasadena, USA      / Horizons    
*******************************************************************************
Target body name: (2019 AS11)                     {source: JPL#3}
Center body name: Earth (399)                     {source: DE441}
Center-site name: Gemini South Obs., Cerro Pachon
*******************************************************************************
Start time      : A.D. 2018-Dec-19 23:52:00.0000 UT      
Stop  time      : A.D. 2018-Dec-20 09:28:00.0000 UT      
Step-size       : 1 minutes
*******************************************************************************
Target pole/equ : undefined
Target radii    : undefined                                                    
Center geodetic : 289.2634, -30.2406227, 2.71233  {E-lon(deg),Lat(deg),Alt(km)}
Center cylindric: 289.2634,5517.21435,-3194.81213 {E-lon(deg),Dxy(km),Dz(km)}
Center pole/equ : ITRF93                          {East-longitude positive}
Center radii    : 6378.137, 6378.137, 6356.752 km {Equator_a, b, pole_c}       
Target primary  : Sun
Vis. interferer : MOON (R_eq= 1737.400) km        {source: DE441}
Rel. light bend : Sun                             {source: DE441}
Rel. lght bnd GM: 1.3271E+11 km^3/s^2                                          
Small-body perts: Yes                             {source: SB441-N16}
Atmos refraction: NO (AIRLESS)
RA format       : HMS
Time format     : CAL 
Calendar mode   : Mixed Julian/Gregorian
RTS-only print  : NO       
EOP file        : eop.240715.p241008                                           
EOP coverage    : DATA-BASED 1962-JAN-20 TO 2024-JUL-15. PREDICTS-> 2024-OCT-07
Units conversion: 1 au= 149597870.700 km, c= 299792.458 km/s, 1 day= 86400.0 s 
Table cut-offs 1: Elevation (-90.0deg=NO ),Airmass (>38.000=NO), Daylight (YES)
Table cut-offs 2: Solar elongation (  0.0,180.0=NO ),Local Hour Angle( 0.0=NO )
Table cut-offs 3: RA/DEC angular rate (     0.0=NO )                           
*******************************************************************************
Initial IAU76/J2000 heliocentric ecliptic osculating elements (au, days, deg.):
  EPOCH=  2458497.5 ! 2019-Jan-14.00 (TDB)         Residual RMS= .087899       
   EC= .1148313279028816   QR= .9946661968961306   TP= 2458526.093433633       
   OM= 299.8828960483019   W=  203.050931799211    IN= 7.281527766683049       
  Equivalent ICRF heliocentric cartesian coordinates (au, au/d):
   X=-3.982431103506237E-01  Y= 8.438985356712057E-01  Z= 3.820551439764541E-01
  VX=-1.601846206933958E-02 VY=-6.309373484980013E-03 VZ=-5.215303828559489E-03
Asteroid physical parameters (km, seconds, rotational period in hours):        
   GM= n.a.                RAD= n.a.               ROTPER= n.a.                
   H= 26.8                 G= .150                 B-V= n.a.                   
                           ALBEDO= n.a.            STYP= n.a.                  
*******************************************************************************
 Date__(UT)__HR:MN     R.A._________(ICRF)_________DEC
******************************************************
$$SOE
 2018-Dec-20 01:55  m  08 01 35.497083 +73 11 39.46261
 2018-Dec-20 01:56  m  08 01 35.559557 +73 11 39.62500
 2018-Dec-20 01:57  m  08 01 35.621663 +73 11 39.78692
 2018-Dec-20 01:58  m  08 01 35.683401 +73 11 39.94836
 2018-Dec-20 01:59  m  08 01 35.744770 +73 11 40.10932
 2018-Dec-20 02:00  m  08 01 35.805773 +73 11 40.26979
 2018-Dec-20 02:01  m  08 01 35.866408 +73 11 40.42977
 2018-Dec-20 02:02  m  08 01 35.926677 +73 11 40.58924
 2018-Dec-20 02:03  m  08 01 35.986580 +73 11 40.74820
 2018-Dec-20 02:04  m  08 01 36.046118 +73 11 40.90665
 2018-Dec-20 02:05  m  08 01 36.105290 +73 11 41.06457
 2018-Dec-20 02:06  m  08 01 36.164099 +73 11 41.22196
 2018-Dec-20 02:07  m  08 01 36.222543 +73 11 41.37882
 2018-Dec-20 02:08  m  08 01 36.280623 +73 11 41.53514
 2018-Dec-20 02:09  m  08 01 36.338341 +73 11 41.69090
 2018-Dec-20 02:10  m  08 01 36.395696 +73 11 41.84611
 2018-Dec-20 02:11  m  08 01 36.452690 +73 11 42.00076
 2018-Dec-20 02:12  m  08 01 36.509322 +73 11 42.15484
 2018-Dec-20 02:13  m  08 01 36.565593 +73 11 42.30835
 2018-Dec-20 02:14  m  08 01 36.621504 +73 11 42.46127
 2018-Dec-20 02:15  m  08 01 36.677055 +73 11 42.61360
 2018-Dec-20 02:16  m  08 01 36.732248 +73 11 42.76534
 2018-Dec-20 02:17  m  08 01 36.787081 +73 11 42.91648
 2018-Dec-20 02:18  m  08 01 36.841557 +73 11 43.06701
 2018-Dec-20 02:19  m  08 01 36.895676 +73 11 43.21693
 2018-Dec-20 02:20  m  08 01 36.949437 +73 11 43.36623
 2018-Dec-20 02:21  m  08 01 37.002843 +73 11 43.51490
 2018-Dec-20 02:22  m  08 01 37.055892 +73 11 43.66293
 2018-Dec-20 02:23  m  08 01 37.108587 +73 11 43.81033
 2018-Dec-20 02:24  m  08 01 37.160928 +73 11 43.95708
 2018-Dec-20 02:25  m  08 01 37.212915 +73 11 44.10318
 2018-Dec-20 02:26  m  08 01 37.264549 +73 11 44.24862
 2018-Dec-20 02:27  m  08 01 37.315830 +73 11 44.39339
 2018-Dec-20 02:28  m  08 01 37.366760 +73 11 44.53749
 2018-Dec-20 02:29  m  08 01 37.417338 +73 11 44.68092
 2018-Dec-20 02:30  m  08 01 37.467567 +73 11 44.82366
 2018-Dec-20 02:31  m  08 01 37.517445 +73 11 44.96571
 2018-Dec-20 02:32  m  08 01 37.566974 +73 11 45.10706
 2018-Dec-20 02:33  m  08 01 37.616155 +73 11 45.24771
 2018-Dec-20 02:34  m  08 01 37.664988 +73 11 45.38765
 2018-Dec-20 02:35  m  08 01 37.713474 +73 11 45.52687
 2018-Dec-20 02:36  m  08 01 37.761614 +73 11 45.66537
 2018-Dec-20 02:37  m  08 01 37.809408 +73 11 45.80314
 2018-Dec-20 02:38  m  08 01 37.856857 +73 11 45.94018
 2018-Dec-20 02:39  m  08 01 37.903962 +73 11 46.07648
 2018-Dec-20 02:40  m  08 01 37.950724 +73 11 46.21203
 2018-Dec-20 02:41  m  08 01 37.997143 +73 11 46.34683
 2018-Dec-20 02:42  m  08 01 38.043220 +73 11 46.48086
 2018-Dec-20 02:43  m  08 01 38.088956 +73 11 46.61414
 2018-Dec-20 02:44  m  08 01 38.134351 +73 11 46.74664
 2018-Dec-20 02:45  m  08 01 38.179407 +73 11 46.87836
 2018-Dec-20 02:46  m  08 01 38.224123 +73 11 47.00930
 2018-Dec-20 02:47  m  08 01 38.268502 +73 11 47.13945
 2018-Dec-20 02:48  m  08 01 38.312543 +73 11 47.26880
 2018-Dec-20 02:49  m  08 01 38.356248 +73 11 47.39735
 2018-Dec-20 02:50  m  08 01 38.399616 +73 11 47.52509
 2018-Dec-20 02:51  m  08 01 38.442650 +73 11 47.65202
 2018-Dec-20 02:52  m  08 01 38.485350 +73 11 47.77812
 2018-Dec-20 02:53  m  08 01 38.527716 +73 11 47.90341
 2018-Dec-20 02:54  m  08 01 38.569750 +73 11 48.02785
 2018-Dec-20 02:55  m  08 01 38.611452 +73 11 48.15146
 2018-Dec-20 02:56  m  08 01 38.652823 +73 11 48.27423
 2018-Dec-20 02:57  m  08 01 38.693864 +73 11 48.39614
 2018-Dec-20 02:58  m  08 01 38.734576 +73 11 48.51720
 2018-Dec-20 02:59  m  08 01 38.774960 +73 11 48.63739
 2018-Dec-20 03:00  m  08 01 38.815016 +73 11 48.75672
 2018-Dec-20 03:01  m  08 01 38.854745 +73 11 48.87518
 2018-Dec-20 03:02  m  08 01 38.894149 +73 11 48.99275
 2018-Dec-20 03:03  m  08 01 38.933228 +73 11 49.10944
 2018-Dec-20 03:04  m  08 01 38.971983 +73 11 49.22523
 2018-Dec-20 03:05  m  08 01 39.010415 +73 11 49.34013
 2018-Dec-20 03:06  m  08 01 39.048524 +73 11 49.45412
 2018-Dec-20 03:07  m  08 01 39.086312 +73 11 49.56721
 2018-Dec-20 03:08  m  08 01 39.123780 +73 11 49.67938
 2018-Dec-20 03:09  m  08 01 39.160929 +73 11 49.79063
 2018-Dec-20 03:10  m  08 01 39.197759 +73 11 49.90095
 2018-Dec-20 03:11  m  08 01 39.234271 +73 11 50.01034
 2018-Dec-20 03:12  m  08 01 39.270466 +73 11 50.11879
 2018-Dec-20 03:13  m  08 01 39.306346 +73 11 50.22630
 2018-Dec-20 03:14  m  08 01 39.341911 +73 11 50.33286
 2018-Dec-20 03:15  m  08 01 39.377162 +73 11 50.43846
 2018-Dec-20 03:16  m  08 01 39.412101 +73 11 50.54310
 2018-Dec-20 03:17  m  08 01 39.446727 +73 11 50.64678
 2018-Dec-20 03:18  m  08 01 39.481042 +73 11 50.74948
 2018-Dec-20 03:19  m  08 01 39.515048 +73 11 50.85121
 2018-Dec-20 03:20  m  08 01 39.548744 +73 11 50.95195
 2018-Dec-20 03:21  m  08 01 39.582132 +73 11 51.05170
 2018-Dec-20 03:22  m  08 01 39.615213 +73 11 51.15046
 2018-Dec-20 03:23  m  08 01 39.647989 +73 11 51.24822
 2018-Dec-20 03:24  m  08 01 39.680459 +73 11 51.34497
 2018-Dec-20 03:25  m  08 01 39.712625 +73 11 51.44071
 2018-Dec-20 03:26  m  08 01 39.744488 +73 11 51.53544
 2018-Dec-20 03:27  m  08 01 39.776050 +73 11 51.62914
 2018-Dec-20 03:28  m  08 01 39.807310 +73 11 51.72182
 2018-Dec-20 03:29  m  08 01 39.838270 +73 11 51.81346
 2018-Dec-20 03:30  m  08 01 39.868932 +73 11 51.90407
 2018-Dec-20 03:31  m  08 01 39.899295 +73 11 51.99363
 2018-Dec-20 03:32  m  08 01 39.929362 +73 11 52.08214
 2018-Dec-20 03:33  m  08 01 39.959133 +73 11 52.16960
 2018-Dec-20 03:34  m  08 01 39.988610 +73 11 52.25600
 2018-Dec-20 03:35  m  08 01 40.017793 +73 11 52.34133
 2018-Dec-20 03:36  m  08 01 40.046683 +73 11 52.42560
 2018-Dec-20 03:37  m  08 01 40.075282 +73 11 52.50878
 2018-Dec-20 03:38  m  08 01 40.103591 +73 11 52.59089
 2018-Dec-20 03:39  m  08 01 40.131610 +73 11 52.67191
 2018-Dec-20 03:40  m  08 01 40.159342 +73 11 52.75184
 2018-Dec-20 03:41  m  08 01 40.186786 +73 11 52.83067
 2018-Dec-20 03:42  m  08 01 40.213944 +73 11 52.90840
 2018-Dec-20 03:43  m  08 01 40.240817 +73 11 52.98502
 2018-Dec-20 03:44  m  08 01 40.267407 +73 11 53.06054
 2018-Dec-20 03:45  m  08 01 40.293714 +73 11 53.13493
 2018-Dec-20 03:46  m  08 01 40.319739 +73 11 53.20820
 2018-Dec-20 03:47  m  08 01 40.345485 +73 11 53.28035
 2018-Dec-20 03:48  m  08 01 40.370951 +73 11 53.35136
 2018-Dec-20 03:49  m  08 01 40.396139 +73 11 53.42123
 2018-Dec-20 03:50  m  08 01 40.421050 +73 11 53.48997
 2018-Dec-20 03:51  m  08 01 40.445685 +73 11 53.55755
 2018-Dec-20 03:52  m  08 01 40.470046 +73 11 53.62398
 2018-Dec-20 03:53  m  08 01 40.494133 +73 11 53.68926
 2018-Dec-20 03:54  m  08 01 40.517949 +73 11 53.75337
 2018-Dec-20 03:55  m  08 01 40.541493 +73 11 53.81632
 2018-Dec-20 03:56  m  08 01 40.564767 +73 11 53.87809
 2018-Dec-20 03:57  m  08 01 40.587772 +73 11 53.93869
